{"type":"FeatureCollection","licence":"Data © OpenStreetMap contributors, ODbL 1.0. http://osm.org/copyright","features":[{"type":"Feature","properties":{"place_id":214913858,"osm_type":"relation","osm_id":196240,"place_rank":4,"category":"boundary","type":"administrative","importance":0.7754133616820287,"addresstype":"country","name":"Oʻzbekiston","display_name":"Oʻzbekiston","address":{"country":"Oʻzbekiston","country_code":"uz"}},"bbox":[55.9985531,37.1816004,73.2147728,45.5906784],"geometry":{"type":"MultiPolygon","coordinates":[[[[55.9985531,41.3222103],[56.7892417,41.2815026],[57.0473752,41.2433523],[57.0711652,41.280121],[57.0596145,41.3218754],[57.0889026,41.3346632],[57.1550304,41.3438173],[57.1734659,41.3394716],[57.1898871,41.3417306],[57.1911365,41.3487178],[57.1856288,41.3574459],[57.181804,41.3523929],[57.181396,41.3681631],[57.1543674,41.382131],[57.1295484,41.3613779],[57.1006918,41.3635344],[57.0398963,41.4412794],[57.049517,41.4835283],[57.0349317,41.519736],[57.0425515,41.565355],[56.9775031,41.6712131],[56.9811807,41.7074761],[56.9637636,41.8262365],[56.9669128,41.8891469],[56.9995111,41.9102481],[57.036524,41.9216585],[57.1281547,41.9292808],[57.2804519,42.1299147],[57.2936215,42.1379877],[57.4334931,42.1563149],[57.5507181,42.1525096],[57.6522907,42.1383691],[57.7447118,42.1687457],[57.8410965,42.1719396],[57.8492561,42.1855446],[57.8602716,42.1722041],[57.8544069,42.1999778],[57.8349769,42.2142944],[57.8489502,42.2147099],[57.8373738,42.2279281],[57.8446664,42.2281547],[57.8407906,42.2381986],[57.8835263,42.2118015],[57.9042822,42.2162207],[57.8955617,42.2229055],[57.8990805,42.231808],[57.9486371,42.2289477],[57.944417,42.264094],[57.9286207,42.302672],[57.9437031,42.3336117],[57.9609912,42.3475776],[57.9618326,42.3646492],[57.9500268,42.3770825],[57.9602772,42.3809627],[57.9410258,42.40213],[57.9244771,42.4057639],[57.9411787,42.4082303],[57.9072911,42.4254736],[57.9426322,42.4445749],[57.9677228,42.4278263],[57.9764179,42.4623349],[57.983685,42.4658336],[57.9789932,42.4847535],[57.9989331,42.4825157],[58.0002336,42.5025961],[58.0066847,42.4994002],[58.0037014,42.515096],[58.0121669,42.4948881],[58.03022,42.500077],[58.0480434,42.5181032],[58.0452896,42.5259211],[58.0548771,42.5275747],[58.0540611,42.544184],[58.0694623,42.5361429],[58.0630366,42.5084799],[58.1207655,42.4916355],[58.1222955,42.5033669],[58.1448362,42.4912594],[58.1358607,42.4904321],[58.1325969,42.4445374],[58.2096028,42.4724544],[58.3055796,42.4558261],[58.3530071,42.4287297],[58.3806476,42.3999647],[58.3963547,42.3570938],[58.4012505,42.3274665],[58.3950526,42.2872158],[58.4450061,42.2961655],[58.5118126,42.2815278],[58.5135465,42.3251289],[58.4320528,42.3729195],[58.411501,42.3711016],[58.4068602,42.4033539],[58.3498449,42.4705738],[58.2992557,42.5592866],[58.2600898,42.5619911],[58.166459,42.599091],[58.15065,42.6108396],[58.150446,42.6300907],[58.2743183,42.6879959],[58.3315883,42.6851469],[58.3992106,42.6668503],[58.4197115,42.6540995],[58.4841721,42.6429215],[58.5384332,42.6528992],[58.5903739,42.648989],[58.6042196,42.6668878],[58.6084014,42.6963172],[58.5954991,42.7199444],[58.6107903,42.7240263],[58.6304548,42.715352],[58.6458053,42.7233005],[58.6430844,42.7335605],[58.6127651,42.7547996],[58.6271431,42.7547391],[58.6204169,42.7663224],[58.6278173,42.7782928],[58.6254398,42.7996686],[59.0086441,42.525136],[59.0718128,42.5193449],[59.1721101,42.5308447],[59.2687274,42.4313895],[59.2586308,42.4144875],[59.3049617,42.3613205],[59.4182203,42.3255453],[59.4204701,42.3067775],[59.4353906,42.2925958],[59.5183971,42.2900303],[59.5520794,42.2966475],[59.5786754,42.2857346],[59.6084323,42.2981835],[59.6537434,42.2891111],[59.7351238,42.3023449],[59.8120593,42.2729268],[59.8445463,42.276896],[59.8525714,42.2936277],[59.8907661,42.3023887],[59.8939151,42.2841659],[59.9316644,42.2742922],[59.9286875,42.2674839],[59.9410076,42.2623986],[59.9407511,42.2473733],[59.9548069,42.2315704],[59.9708777,42.2468486],[59.9972609,42.2411549],[59.9917058,42.2241721],[60.0164447,42.2215651],[60.0266449,42.1835956],[60.0480863,42.1832922],[60.052356,42.1702843],[60.0348911,42.1663292],[60.031221,42.1566528],[59.9820813,42.1708769],[59.9844565,42.1613631],[59.9611935,42.1420726],[59.9938737,42.1240129],[60.0264068,42.122325],[60.0346793,42.1054244],[60.0568665,42.0892984],[60.0469447,42.0736953],[60.0498252,42.0604449],[60.0362706,42.0312052],[60.040884,42.0266945],[60.0214862,41.9948714],[60.0066376,41.9923676],[59.9505043,42.0197445],[59.9216437,42.0068787],[59.9164724,41.9917137],[59.9327346,41.9783584],[59.9366278,41.9617351],[59.9716401,41.9401322],[59.9924414,41.9561632],[60.0235019,41.9614306],[60.0297861,41.9484753],[60.0255825,41.9322195],[60.0409769,41.9159899],[60.0894893,41.9045992],[60.0980306,41.9118295],[60.1245698,41.9014583],[60.132986,41.8950814],[60.1355071,41.8766578],[60.1855924,41.8332213],[60.2561171,41.8227687],[60.2886102,41.7961449],[60.2838167,41.7914194],[60.3321551,41.7677676],[60.3185925,41.7508774],[60.2946754,41.7547917],[60.290923,41.7487755],[60.300919,41.7447795],[60.2993011,41.73702],[60.2834069,41.7337753],[60.2631226,41.7601944],[60.2372284,41.7511101],[60.2206594,41.77443],[60.2036055,41.7805905],[60.1912724,41.7960417],[60.1813241,41.7869202],[60.1422803,41.8053873],[60.122629,41.7962768],[60.0878043,41.8118995],[60.0789816,41.7975002],[60.0838282,41.7719495],[60.0609892,41.7686262],[60.0470216,41.7568333],[60.0847487,41.6998274],[60.144942,41.6601424],[60.1779872,41.6169016],[60.1709815,41.6051577],[60.1743862,41.579286],[60.1526176,41.5786802],[60.1418396,41.568863],[60.1409894,41.5559166],[60.1039083,41.542131],[60.0740766,41.457487],[60.076917,41.4348356],[60.093114,41.4131935],[60.2300222,41.3372015],[60.2762582,41.3303784],[60.4057223,41.2530792],[60.4914656,41.2174791],[60.5791042,41.2234813],[60.6809313,41.255412],[60.766867,41.2585883],[61.0004698,41.2432153],[61.0018005,41.233339],[61.0297963,41.2226581],[61.0335305,41.269236],[61.034149,41.262058],[61.0449871,41.2648877],[61.0516165,41.2459056],[61.0548024,41.2575754],[61.0650247,41.2542651],[61.0824441,41.2147256],[61.0904175,41.2301051],[61.1286075,41.1902273],[61.2403842,41.1453326],[61.3304548,41.1478119],[61.3974669,41.1965362],[61.3955025,41.2084057],[61.4058425,41.2146102],[61.4084977,41.2878131],[61.4317636,41.2908946],[61.481034,41.2867284],[61.54541,41.2615497],[61.5682409,41.2687755],[61.6092268,41.2562066],[61.626885,41.2649877],[61.6499339,41.2314343],[61.7128335,41.2151385],[61.7567479,41.175739],[61.8132317,41.1535995],[61.8540579,41.1213383],[61.8752083,41.1162013],[61.8985329,41.0779755],[61.9009556,41.0534178],[61.9547227,41.034485],[61.9708795,41.0191373],[61.9805727,40.9836079],[61.9963694,40.9735364],[61.9914009,40.9469024],[62.0001185,40.892406],[61.9868555,40.8715058],[61.9933678,40.8520704],[61.9856876,40.8369429],[62.0264015,40.7868159],[62.0420752,40.7577433],[62.0519985,40.6988686],[62.0910105,40.6569645],[62.1130725,40.596107],[62.143873,40.5545349],[62.1898268,40.5351988],[62.2077182,40.5085152],[62.2636687,40.4847758],[62.2922696,40.460781],[62.3494599,40.4382973],[62.3345726,40.3749465],[62.3914803,40.3179294],[62.3834532,40.2760958],[62.4137839,40.1735074],[62.4119196,40.1298756],[62.3964967,40.0992805],[62.4270052,40.064861],[62.4349125,39.9999981],[62.4698586,39.9582627],[63.4641916,39.3933273],[63.694214,39.2724385],[63.7051492,39.2238659],[64.0400401,39.0361027],[64.1799467,38.9641798],[64.3305917,38.9952609],[64.5355672,38.8396366],[64.6640757,38.7707698],[64.7168192,38.7521476],[64.8204509,38.6830301],[64.8629804,38.6814172],[64.8960615,38.6704654],[64.9929451,38.6121552],[65.0374611,38.6057401],[65.171182,38.5025633],[65.5415462,38.3002704],[65.5397416,38.2893162],[65.8378107,38.2498216],[65.8501403,38.2765541],[65.9143638,38.2777084],[65.9774065,38.2275615],[66.0280251,38.2292302],[66.0462534,38.2103913],[66.0641169,38.2119171],[66.0801673,38.1983184],[66.0917008,38.2031073],[66.107571,38.1795545],[66.1370748,38.1774172],[66.1664593,38.1625431],[66.1657941,38.1560811],[66.1947513,38.1553302],[66.20386,38.1658666],[66.2161231,38.1551488],[66.2469001,38.1563626],[66.257607,38.1283295],[66.2719412,38.1189968],[66.2711151,38.1079914],[66.2914435,38.1009061],[66.3237937,38.0658622],[66.3521969,38.0633988],[66.3923979,38.0329448],[66.4283717,38.0239465],[66.5046363,38.0417594],[66.6433537,37.9919198],[66.6745138,37.9727157],[66.7074803,37.9187097],[66.6414749,37.8972268],[66.6356504,37.8856796],[66.6071795,37.868613],[66.5986619,37.8517497],[66.5785666,37.8374004],[66.5611942,37.7948809],[66.5426235,37.7725103],[66.5514185,37.6971802],[66.5418888,37.6426691],[66.5224541,37.5990481],[66.5316203,37.5818623],[66.5276576,37.5378876],[66.5349981,37.5122659],[66.5677493,37.493512],[66.5805068,37.4676275],[66.5735815,37.4519833],[66.5001781,37.3927193],[66.5514896,37.354385],[66.575097,37.36917],[66.593677,37.368724],[66.608666,37.358921],[66.622888,37.332032],[66.654269,37.322985],[66.692621,37.357019],[66.732868,37.363732],[66.751191,37.35381],[66.799484,37.363281],[66.8497905,37.3541036],[66.946443,37.398389],[67.01107,37.373407],[67.045794,37.38021],[67.0877545,37.349248],[67.087263,37.34096],[67.112035,37.328109],[67.1081765,37.2858627],[67.1384765,37.2650742],[67.1738631,37.26719],[67.2058405,37.255571],[67.2236285,37.2438638],[67.2461865,37.1890215],[67.2700357,37.1821164],[67.3772614,37.2194944],[67.4017075,37.217516],[67.4530955,37.2364808],[67.4742539,37.259764],[67.5026049,37.2695955],[67.5249421,37.2596261],[67.5659797,37.2183852],[67.5974289,37.2299851],[67.7074742,37.2189066],[67.7405476,37.209345],[67.7809011,37.1816004],[67.79609,37.1893949],[67.8148969,37.2459863],[67.8120533,37.2687415],[67.8376582,37.3018504],[67.8418813,37.3281939],[67.8148658,37.3770694],[67.801159,37.3877794],[67.7901605,37.418203],[67.805555,37.4336221],[67.8088367,37.467302],[67.8333317,37.5072799],[67.830641,37.5440127],[67.8622882,37.5923609],[67.8522933,37.6109164],[67.8673676,37.619263],[67.8633877,37.6383448],[67.8974801,37.6304276],[67.9653021,37.6832464],[68.013301,37.7040917],[68.0167939,37.7110614],[68.0071918,37.7200439],[68.0182823,37.7210424],[68.0209322,37.7334453],[68.0407687,37.7445065],[68.119731,37.8712701],[68.1347734,37.900776],[68.1278282,37.914868],[68.1369971,37.9203027],[68.1348485,37.9266866],[68.1650182,37.9359331],[68.2179168,37.9334205],[68.2679524,37.9091187],[68.2840037,37.9269935],[68.2744115,37.9379982],[68.2845166,37.9551827],[68.279777,37.9648341],[68.287025,37.9703161],[68.2888332,37.9992869],[68.3074965,38.0292093],[68.3222466,38.0325493],[68.3432409,38.0600013],[68.3651084,38.0685319],[68.3770704,38.0845152],[68.3777422,38.1183569],[68.3872158,38.1434553],[68.395139,38.1441028],[68.405344,38.1807425],[68.4039525,38.1989095],[68.372124,38.2070317],[68.3734478,38.2257589],[68.3647921,38.221939],[68.344643,38.238147],[68.329239,38.234951],[68.302392,38.255669],[68.292665,38.298308],[68.2732242,38.3207417],[68.210293,38.3361954],[68.1821287,38.3682634],[68.1569938,38.3741163],[68.1374645,38.4103102],[68.0926849,38.3893075],[68.0619145,38.3927255],[68.0704418,38.4198896],[68.1164241,38.4681121],[68.0977721,38.4921845],[68.1091104,38.4975032],[68.1008916,38.5126391],[68.06401,38.5322946],[68.0617154,38.57574],[68.0749618,38.5943328],[68.081491,38.631692],[68.092832,38.642455],[68.0810797,38.6532733],[68.0823856,38.6725591],[68.0566902,38.7145692],[68.0787636,38.7269608],[68.1284803,38.732668],[68.0935998,38.790319],[68.0671247,38.7989222],[68.067398,38.8110675],[68.0697398,38.8183381],[68.1319902,38.8174812],[68.1337329,38.8266216],[68.170428,38.8309994],[68.1748424,38.8453382],[68.2016002,38.8558315],[68.2019026,38.8663],[68.1772961,38.8816524],[68.1814334,38.8949312],[68.1922822,38.8953593],[68.1950037,38.9134332],[68.2081543,38.9193885],[68.196079,38.938527],[68.133942,38.9626796],[68.14007,38.9779498],[68.1308478,38.9973737],[68.1164433,39.0027799],[68.1125991,39.0151469],[68.0783067,39.0266779],[68.0274289,39.0095917],[68.0023942,39.0165374],[67.9826896,39.0350347],[67.966608,39.023018],[67.921648,39.026491],[67.890704,39.019181],[67.869066,39.001359],[67.820101,39.016335],[67.797489,39.0108499],[67.7662112,39.0175122],[67.7517524,39.001641],[67.7388822,39.0061125],[67.7063521,38.9971835],[67.6836736,39.0189647],[67.6836082,39.0537725],[67.6707518,39.0658046],[67.6771542,39.1464376],[67.635513,39.1445774],[67.6260918,39.1520027],[67.6269662,39.1703941],[67.5841824,39.1883386],[67.5499851,39.1802844],[67.4992695,39.1865708],[67.4879553,39.2017583],[67.4613576,39.1938147],[67.4395026,39.212373],[67.4028369,39.2142367],[67.3992455,39.2258647],[67.3429526,39.2316728],[67.3641741,39.2624664],[67.3581222,39.2877682],[67.3332775,39.3042293],[67.3867527,39.3144068],[67.4491765,39.3125527],[67.4757462,39.3299669],[67.4696535,39.3394721],[67.4832398,39.3774292],[67.4766256,39.3785107],[67.478308,39.3992237],[67.4514464,39.4209122],[67.4516048,39.4406416],[67.4645431,39.4627212],[67.4363581,39.4985574],[67.404545,39.5086646],[67.3967275,39.5280539],[67.4163093,39.5384869],[67.4322512,39.5298139],[67.4687107,39.5313071],[67.4705805,39.5416302],[67.4439284,39.5502319],[67.4558571,39.5730305],[67.452171,39.5786181],[67.5193348,39.5791788],[67.5343548,39.5898805],[67.557467,39.5884214],[67.5824345,39.599957],[67.6275609,39.6008106],[67.628974,39.6133675],[67.651498,39.6353773],[67.6836891,39.6387253],[67.707976,39.6596577],[67.7607889,39.6399175],[67.7931366,39.6569586],[67.8358748,39.6306767],[67.8750795,39.627375],[67.8999028,39.6107341],[67.9389204,39.5988392],[67.9771869,39.6054766],[68.0383067,39.5773112],[68.0811596,39.5775614],[68.1148195,39.5602562],[68.1769048,39.5691761],[68.2006573,39.5535595],[68.250737,39.5626811],[68.286301,39.5596775],[68.2981233,39.54972],[68.3095763,39.5541255],[68.369169,39.5299878],[68.392083,39.5447052],[68.4563175,39.5336491],[68.4909715,39.5423266],[68.5110334,39.5305001],[68.5242081,39.5321256],[68.5469091,39.5583779],[68.536191,39.5691675],[68.5380778,39.5845219],[68.5524456,39.5997864],[68.5701543,39.6014164],[68.5798091,39.6213116],[68.6172456,39.6379904],[68.629862,39.6838572],[68.6262006,39.6957039],[68.5867497,39.7244517],[68.5895368,39.7374646],[68.6190266,39.7471224],[68.624041,39.7714564],[68.6432206,39.7773236],[68.6368678,39.8549058],[68.6987274,39.8481329],[68.7204999,39.8596697],[68.759121,39.8447188],[68.7498833,39.867397],[68.7725252,39.8749941],[68.7701974,39.8594976],[68.7785039,39.8398834],[68.7853719,39.8398204],[68.7963566,39.8674197],[68.8067013,39.8751342],[68.8226107,39.8704954],[68.8217016,39.8827688],[68.8311102,39.8909623],[68.82113,39.8951863],[68.8278201,39.9036504],[68.8282329,39.9469324],[68.8165775,39.96805],[68.8006752,39.9699642],[68.824398,39.9867011],[68.8552001,39.9213021],[68.8445918,39.8906719],[68.8527203,39.8884949],[68.8547503,39.8631395],[68.8895031,39.8649055],[68.8966128,39.8790226],[68.9173687,39.8912786],[68.9237149,39.9115004],[68.9432584,39.9191959],[68.9282463,39.9302734],[68.8995272,39.9931005],[68.8569289,40.0505704],[68.8885693,40.0549794],[68.8933371,40.0482142],[68.9066278,40.0680652],[68.9161877,40.0613308],[68.9552258,40.0627611],[68.9774732,40.041974],[68.9771898,40.0577639],[68.9568639,40.0836218],[69.0084534,40.0991327],[69.0241002,40.1260372],[69.0200197,40.1542295],[68.9807186,40.1427813],[68.931753,40.1459947],[68.8112238,40.1166294],[68.7731355,40.0993793],[68.6940954,40.0950429],[68.6332364,40.0766773],[68.531026,40.1177702],[68.5328606,40.1438209],[68.7795653,40.2039258],[68.7972997,40.1726025],[68.8436124,40.1832761],[68.840952,40.1938809],[68.8627616,40.2100349],[69.0357496,40.2287339],[69.1652807,40.2105766],[69.1977366,40.2150728],[69.2465129,40.2082559],[69.3043122,40.1884416],[69.2886373,40.2256852],[69.3014549,40.2448134],[69.2626938,40.2582801],[69.2477846,40.2748134],[69.2546688,40.2837093],[69.2466118,40.2954433],[69.2491996,40.3034926],[69.30743,40.2818881],[69.3282873,40.2972119],[69.3405083,40.3390216],[69.3362895,40.3487557],[69.3026136,40.3681354],[69.3065043,40.3867854],[69.2911155,40.4023807],[69.2984432,40.411835],[69.2833969,40.4200006],[69.2839318,40.4434292],[69.2677196,40.4597181],[69.2664257,40.4759476],[69.2798596,40.4928554],[69.2308738,40.5226758],[69.2110309,40.5467856],[69.2267724,40.5499375],[69.262298,40.5763465],[69.3470781,40.5853186],[69.3370613,40.6586167],[69.3425378,40.6851351],[69.3285514,40.7039545],[69.3461971,40.712271],[69.3467643,40.7243955],[69.355893,40.7266933],[69.3511338,40.7321151],[69.3629231,40.734391],[69.3596261,40.7603178],[69.3476609,40.7749138],[69.3523634,40.7781516],[69.3734567,40.7906468],[69.3886311,40.7842273],[69.4078326,40.7522279],[69.4201142,40.759067],[69.4285122,40.7835084],[69.4376888,40.7888601],[69.4743585,40.7807296],[69.4799194,40.7916679],[69.4968862,40.7974442],[69.5024409,40.7796667],[69.5185651,40.7825298],[69.5580172,40.7642764],[69.5837513,40.7040953],[69.6171218,40.6897413],[69.625336,40.6762627],[69.6516941,40.6710895],[69.6633366,40.6597973],[69.6692671,40.6341375],[69.7204874,40.6286889],[69.7648903,40.6515754],[69.7616907,40.6592546],[69.7931644,40.7015934],[69.8159518,40.707322],[69.8350883,40.6996686],[69.8899187,40.7255604],[69.931455,40.7165853],[69.961456,40.725829],[69.9739261,40.7389148],[70.0065143,40.7360093],[70.0391369,40.7531698],[70.0681728,40.755183],[70.1137115,40.7871151],[70.1273858,40.8220623],[70.1627133,40.83423],[70.1811771,40.833773],[70.2012639,40.8222158],[70.266365,40.8501598],[70.2863537,40.8747347],[70.3263661,40.8864945],[70.3351018,40.8819886],[70.3718228,40.8979968],[70.3792527,40.9181412],[70.3706023,40.9432649],[70.3872504,40.9514526],[70.388872,40.9671064],[70.3746187,41.0029397],[70.3957205,41.0268585],[70.4138457,41.0344619],[70.4449451,41.0450935],[70.4586576,41.0367855],[70.4725404,41.0413097],[70.5144548,41.010482],[70.5212022,40.987233],[70.5562108,40.9788896],[70.5983897,40.9321121],[70.607757,40.90793],[70.6407917,40.8826624],[70.6517924,40.8582913],[70.7234428,40.8143777],[70.7238827,40.8061323],[70.7033868,40.8005063],[70.7276738,40.7692148],[70.7639908,40.7584973],[70.7958447,40.732543],[70.7973438,40.7198182],[70.7764393,40.7162154],[70.7625445,40.6847534],[70.7307472,40.6860374],[70.7332455,40.6563311],[70.70494,40.6629995],[70.65496,40.6267018],[70.6361326,40.6237133],[70.5880674,40.5664909],[70.5139097,40.5495364],[70.4830107,40.5015188],[70.4455429,40.496815],[70.3281721,40.4551648],[70.3305754,40.4404032],[70.3480227,40.4255297],[70.3504713,40.4086976],[70.3789526,40.38652],[70.422067,40.378314],[70.4766677,40.3519554],[70.5518598,40.3547797],[70.5819695,40.338905],[70.5597973,40.3120592],[70.5754385,40.2890516],[70.5757348,40.2642835],[70.598314,40.2419576],[70.579474,40.234353],[70.63233,40.177295],[70.713954,40.189862],[70.759905,40.188189],[70.7901826,40.201986],[70.8486641,40.2100544],[70.8630143,40.2207393],[70.9846215,40.2224096],[70.9766677,40.2570426],[70.9608474,40.267593],[70.9637448,40.2883292],[70.9845991,40.2859886],[71.0188436,40.2961288],[71.0365972,40.2865825],[71.071049,40.2942458],[71.1279388,40.3351051],[71.2246559,40.3417165],[71.2523997,40.3315017],[71.2411197,40.3220006],[71.2737578,40.3435988],[71.3006665,40.3308024],[71.2930525,40.3256734],[71.3106596,40.3071911],[71.3240835,40.317916],[71.3690604,40.318823],[71.3766424,40.3142266],[71.3674084,40.3060532],[71.3912774,40.3090876],[71.4279816,40.2840457],[71.5007839,40.2776779],[71.5114384,40.2693586],[71.5129363,40.23099],[71.5644173,40.2158681],[71.5925726,40.21795],[71.6191898,40.207446],[71.6153355,40.2181716],[71.6286922,40.2175178],[71.6195846,40.2380524],[71.6200753,40.2671288],[71.6731077,40.2696523],[71.6987083,40.2442751],[71.6942003,40.2247453],[71.706558,40.202748],[71.692787,40.2051796],[71.7023852,40.191188],[71.6832482,40.1953367],[71.6813669,40.1889565],[71.7153039,40.177287],[71.723764,40.150019],[71.7307176,40.1485719],[71.7350549,40.162565],[71.7686444,40.1789061],[71.7784238,40.1934894],[71.7982895,40.1969816],[71.7984679,40.1908402],[71.8134971,40.2049872],[71.8318863,40.2059447],[71.8365027,40.2105495],[71.8285755,40.2411028],[71.8411532,40.2537991],[71.8846318,40.2625817],[71.921415,40.2548124],[71.9270225,40.2419489],[71.9453925,40.2378999],[71.9667559,40.2446977],[71.9394795,40.2501682],[71.9492476,40.2561837],[71.9785256,40.2565838],[72.0043606,40.2758323],[72.024367,40.2647329],[72.0512057,40.2777728],[72.0499795,40.2874825],[71.9837219,40.302201],[71.9653375,40.3211902],[72.0482885,40.3708084],[72.0438477,40.3783328],[72.0986623,40.4117618],[72.1130954,40.427903],[72.1017169,40.4309703],[72.1013678,40.4393234],[72.1721017,40.4857463],[72.173947,40.4958588],[72.186279,40.4960561],[72.1931108,40.481122],[72.2005182,40.4869306],[72.2537057,40.4810145],[72.243501,40.460299],[72.2718992,40.4512182],[72.2778081,40.4342416],[72.3121324,40.4455062],[72.3785411,40.4075176],[72.4208145,40.4049262],[72.4173502,40.4456033],[72.4353602,40.4564589],[72.4366445,40.4801441],[72.4244213,40.4848344],[72.4150803,40.508438],[72.378574,40.5118277],[72.3825831,40.5227396],[72.4031676,40.5252015],[72.4259894,40.539577],[72.4160622,40.551725],[72.4201809,40.5614933],[72.3898618,40.5658795],[72.3947509,40.5753409],[72.3724971,40.5801345],[72.3462362,40.6030024],[72.3833489,40.6015158],[72.3862746,40.6134059],[72.4083401,40.6181837],[72.4760175,40.5505553],[72.4910204,40.5528951],[72.4922315,40.5687818],[72.4997224,40.569855],[72.5181016,40.5459621],[72.5829773,40.5359811],[72.6101169,40.5158139],[72.6553076,40.510487],[72.6693504,40.5233831],[72.6636892,40.5614713],[72.6733702,40.5671066],[72.6637385,40.5854034],[72.6947821,40.5979206],[72.7010717,40.587832],[72.7399259,40.5842601],[72.7476056,40.5714028],[72.7590996,40.5719449],[72.7494183,40.6075344],[72.7749856,40.6385404],[72.7688575,40.6468232],[72.7812719,40.6484047],[72.7792593,40.6608621],[72.8013712,40.6772578],[72.8466038,40.6726334],[72.8654096,40.7006796],[72.8533177,40.7123307],[72.8727484,40.7112494],[72.9461309,40.7319566],[72.9910559,40.764627],[73.057211,40.7676294],[73.0685216,40.7405971],[73.072492,40.7516],[73.0692733,40.7556052],[73.0688787,40.7654394],[73.071655,40.7673875],[73.1077329,40.7550276],[73.102955,40.7482593],[73.1090891,40.7516752],[73.1132318,40.7429011],[73.1104816,40.7187247],[73.1226123,40.7191584],[73.1251758,40.7062854],[73.1323398,40.7051923],[73.145203,40.7117507],[73.1493457,40.7254899],[73.11773,40.7621876],[73.154568,40.7740966],[73.1910854,40.7530581],[73.1849514,40.7600625],[73.1894603,40.7586929],[73.1952933,40.7631337],[73.183483,40.7641566],[73.1950203,40.7792221],[73.1640984,40.7890831],[73.2147728,40.8198005],[73.1755284,40.8176349],[73.1415999,40.7930369],[73.1399295,40.8091272],[73.1485021,40.8160756],[73.1387415,40.8415208],[73.0435637,40.8469193],[73.0292671,40.8389572],[73.0184202,40.846375],[72.9999376,40.8428981],[72.9946883,40.8314328],[72.9587717,40.8158528],[72.9581335,40.8049997],[72.9390539,40.8004244],[72.9003122,40.8155444],[72.8806906,40.8374103],[72.8340074,40.85598],[72.712603,40.8486927],[72.5765063,40.8755511],[72.592935,40.9050516],[72.551467,40.9618205],[72.4957888,40.9674725],[72.4878036,40.9745158],[72.5016049,40.9871552],[72.4854886,40.9908552],[72.4864654,41.002644],[72.4530143,41.0274772],[72.4261217,41.0344539],[72.4167797,41.0263959],[72.3900325,41.0284111],[72.3605774,41.0442376],[72.3503922,41.0603506],[72.3302884,41.036926],[72.2897313,41.0284269],[72.2598574,41.0059286],[72.1845236,40.9968748],[72.1720025,40.9878719],[72.1590306,41.0053223],[72.1615341,41.0134009],[72.1823984,41.0069025],[72.1974706,41.0310679],[72.2077584,41.028469],[72.2101149,41.0508166],[72.1788734,41.116658],[72.1500316,41.1253403],[72.1456696,41.1376112],[72.1763569,41.1558369],[72.1685594,41.1639959],[72.1073796,41.1528354],[72.0710903,41.117437],[72.0128104,41.1423576],[72.0066045,41.1565212],[71.9601747,41.1569704],[71.9426252,41.1453575],[71.8863646,41.1678132],[71.8838114,41.1932565],[71.8620069,41.2008483],[71.8991738,41.2545602],[71.9134547,41.257966],[71.9092578,41.2779332],[71.9251902,41.2945633],[71.8874398,41.3258048],[71.8804145,41.3378473],[71.8934393,41.3426804],[71.8826193,41.3620001],[71.8666741,41.3491547],[71.8341923,41.3590463],[71.8406692,41.3744771],[71.7970203,41.4085097],[71.7920862,41.4394768],[71.7736197,41.4479631],[71.7529298,41.4341588],[71.7298173,41.4442437],[71.7202335,41.4337396],[71.7282071,41.4256969],[71.7206949,41.4156918],[71.7278333,41.4088898],[71.7121545,41.3990328],[71.6894449,41.4162519],[71.6968814,41.4453297],[71.7219623,41.4668505],[71.7109922,41.4876525],[71.7277845,41.493236],[71.7230282,41.5006537],[71.7339302,41.5160628],[71.7198589,41.521532],[71.7371511,41.538762],[71.7231565,41.5478341],[71.7060527,41.5423273],[71.7062144,41.5355709],[71.6765816,41.5149342],[71.6702711,41.4977574],[71.6431592,41.4870754],[71.6180506,41.4875662],[71.6015925,41.4767981],[71.6200934,41.4724506],[71.6510866,41.481973],[71.6807895,41.4220474],[71.6712499,41.4111955],[71.6751383,41.4071496],[71.6506134,41.3982497],[71.6623411,41.3821181],[71.6363513,41.3425031],[71.6109211,41.3350162],[71.591855,41.3107871],[71.5602667,41.2899879],[71.5236011,41.2915071],[71.5164227,41.3073853],[71.4466111,41.2850351],[71.4568705,41.2625565],[71.4423589,41.2481331],[71.4518418,41.2421531],[71.4484327,41.2253468],[71.4602379,41.213375],[71.430625,41.1881923],[71.4362443,41.170976],[71.451916,41.1606826],[71.4320065,41.1326042],[71.3956929,41.1073068],[71.3877654,41.1208426],[71.3786779,41.1188651],[71.381412,41.1260327],[71.3688824,41.1209623],[71.3504167,41.1275421],[71.2772353,41.099419],[71.2725153,41.1733892],[71.2398986,41.1912303],[71.2243533,41.1863085],[71.224503,41.1709984],[71.2177659,41.1673199],[71.195403,41.1857444],[71.1776736,41.1690817],[71.1239128,41.1432493],[71.0389375,41.1904226],[70.9657788,41.1635355],[70.9423255,41.1759084],[70.9341287,41.1912824],[70.8888745,41.2141105],[70.855243,41.2502641],[70.8408844,41.2509917],[70.799571,41.230547],[70.7863332,41.194854],[70.7684444,41.2651624],[70.778446,41.2875764],[70.7732097,41.3056495],[70.7853132,41.3256582],[70.7770289,41.3316848],[70.7870711,41.3487217],[70.7750711,41.3708246],[70.7795072,41.3866135],[70.7208787,41.4421288],[70.7171645,41.4657924],[70.6826304,41.4716059],[70.6480848,41.4578896],[70.5942632,41.456817],[70.5906916,41.4454917],[70.5698342,41.4425466],[70.5675679,41.4268425],[70.5529062,41.420907],[70.5491077,41.4086931],[70.4880087,41.3981736],[70.4691734,41.4094404],[70.4638759,41.4269068],[70.4187675,41.454377],[70.4074555,41.4703564],[70.3808817,41.4665986],[70.3634716,41.492685],[70.3250383,41.5004818],[70.3031382,41.5206138],[70.2763326,41.5117338],[70.2673043,41.4981226],[70.2404393,41.4913852],[70.1689582,41.5153538],[70.1875726,41.5449556],[70.1792873,41.5574959],[70.2086188,41.5733038],[70.2147129,41.5858411],[70.2092461,41.611957],[70.2406557,41.6171152],[70.2658428,41.6074629],[70.3018455,41.6312249],[70.3670735,41.6474849],[70.3965693,41.6841771],[70.4498127,41.7025461],[70.4668041,41.7206278],[70.4966927,41.7196874],[70.5067044,41.7365869],[70.5086934,41.7720535],[70.5275022,41.7985755],[70.5785299,41.8197525],[70.5993242,41.8198265],[70.6033611,41.8507165],[70.6287543,41.853324],[70.6649614,41.9069509],[70.7137386,41.9204959],[70.7526847,41.9127357],[70.7572325,41.9364243],[70.8068604,41.9206212],[70.8155783,41.9265491],[70.8348048,41.9231054],[70.8539149,41.9415169],[70.8520336,41.9889848],[70.8378758,41.9997011],[70.859114,42.0267999],[70.8556322,42.0398977],[70.8651702,42.0541323],[70.9422029,42.0311812],[70.9927462,42.0304072],[71.0134782,42.0523595],[71.0064468,42.0569845],[71.0289571,42.0677232],[71.0401427,42.0636521],[71.0563691,42.0852393],[71.0996664,42.0946194],[71.1035554,42.1128948],[71.1298427,42.1165025],[71.1411237,42.1339664],[71.1527121,42.1302841],[71.1755491,42.144058],[71.2178708,42.1372099],[71.2265943,42.1436794],[71.2202102,42.1487689],[71.2583621,42.1679359],[71.2504953,42.1818215],[71.2690927,42.1963697],[71.2671899,42.2053285],[71.250527,42.2110015],[71.2450159,42.2277866],[71.2094719,42.2242748],[71.2089637,42.237095],[71.1517576,42.2635562],[71.1334657,42.2821769],[71.106577,42.2739363],[71.0636935,42.2949036],[71.0260504,42.2929592],[71.0085936,42.2777084],[71.0043889,42.260083],[70.988482,42.2527095],[70.943305,42.263467],[70.926506,42.237537],[70.8878997,42.2200029],[70.8859077,42.2115888],[70.8545521,42.2079049],[70.8495564,42.1975891],[70.8315575,42.1951906],[70.7938434,42.2094529],[70.7680106,42.1935696],[70.750926,42.1933048],[70.7390937,42.181906],[70.7555542,42.1709479],[70.737571,42.165771],[70.7072412,42.1303181],[70.6871709,42.1210878],[70.678779,42.088375],[70.6364218,42.0269421],[70.6391675,42.0148569],[70.6065563,42.0068513],[70.5594286,42.0235126],[70.5487015,42.0350132],[70.5585293,42.0430256],[70.545532,42.073982],[70.5298086,42.0848941],[70.5146915,42.0831873],[70.5013841,42.0991394],[70.4781094,42.1091852],[70.459019,42.0849916],[70.4421228,42.0918238],[70.4008772,42.0694044],[70.3735146,42.0693249],[70.3196471,42.0367939],[70.3327645,42.018194],[70.3352504,41.9747055],[70.2614384,41.9543202],[70.2280452,41.9346252],[70.2273849,41.9172346],[70.2092668,41.9036857],[70.196479,41.904483],[70.1970557,41.8872651],[70.1811115,41.883104],[70.184532,41.864395],[70.175865,41.855308],[70.1467559,41.8365785],[70.1355193,41.8443457],[70.1027368,41.8373072],[70.0769293,41.8086692],[70.0509627,41.7993877],[70.0513585,41.7796739],[70.0347732,41.7765258],[70.0213159,41.7851154],[70.021427,41.7958594],[69.9992135,41.8063872],[69.992466,41.8002885],[69.9998773,41.7886742],[69.9807822,41.7807866],[69.9724112,41.7695887],[69.9753266,41.7583639],[69.9581072,41.7517174],[69.9576833,41.7337735],[69.9247384,41.7265412],[69.9175419,41.7136868],[69.881111,41.706676],[69.8391215,41.7204589],[69.7739321,41.6965329],[69.7373046,41.6985886],[69.712944,41.676876],[69.68116,41.677486],[69.668525,41.668655],[69.6179105,41.6633394],[69.6075291,41.6484053],[69.576469,41.629512],[69.55706,41.596969],[69.538887,41.588661],[69.5377026,41.578318],[69.5493264,41.569705],[69.500272,41.5475914],[69.4812313,41.5510178],[69.4606169,41.5689458],[69.4451213,41.5631621],[69.3976836,41.507016],[69.4384748,41.4878766],[69.4542635,41.4881383],[69.4568475,41.4645994],[69.4340974,41.461033],[69.4118225,41.4704701],[69.3797169,41.4653393],[69.3546403,41.4726048],[69.3452107,41.4590344],[69.2964633,41.4356221],[69.2500639,41.4663201],[69.186137,41.4526572],[69.1785567,41.437193],[69.1487163,41.430998],[69.1754094,41.4029417],[69.1551348,41.3865743],[69.1491278,41.3934541],[69.1137554,41.3914744],[69.0922828,41.3569026],[69.0786043,41.3579453],[69.0886611,41.3685558],[69.0789596,41.377052],[69.0213957,41.355476],[69.0468543,41.3481485],[69.0396461,41.3274296],[69.0455177,41.3100647],[69.0186939,41.2986477],[69.013858,41.2895303],[69.0170696,41.273414],[69.0405413,41.2640969],[69.0391874,41.2544685],[69.0210305,41.2459015],[69.030088,41.2250601],[69.0114426,41.2276327],[69.0004072,41.2384608],[68.991595,41.2141051],[68.9319421,41.1827698],[68.9154833,41.182323],[68.9117353,41.1720938],[68.8032671,41.1154382],[68.7219509,41.0502579],[68.7139132,41.0310299],[68.742342,41.00581],[68.7548686,41.0119713],[68.7611357,41.0063611],[68.7525243,41.0031188],[68.7582196,40.9972647],[68.7476187,40.9901727],[68.749561,40.9816797],[68.7285721,40.9696525],[68.6774381,40.9626042],[68.6441214,40.9427387],[68.6278389,40.9685034],[68.6739174,40.9873951],[68.6194277,41.0017683],[68.6094027,41.0119073],[68.6074495,41.0304659],[68.5895394,41.028847],[68.5598099,41.0071611],[68.5221477,41.017327],[68.5043805,40.9998842],[68.4972512,40.979136],[68.5095929,40.9729009],[68.5176497,40.9425324],[68.548749,40.9469153],[68.5827827,40.9245057],[68.5767115,40.8972189],[68.5904826,40.8653355],[68.5640622,40.8485447],[68.5623114,40.8067459],[68.5858581,40.7802662],[68.5839746,40.7088338],[68.6090885,40.7077666],[68.6188785,40.6979289],[68.6350534,40.7010476],[68.643942,40.693719],[68.636264,40.6862907],[68.6536221,40.6801352],[68.6424133,40.6381324],[68.6221682,40.6303279],[68.6546617,40.6122391],[68.6631848,40.5994345],[68.6412276,40.599495],[68.6105125,40.577124],[68.5816637,40.5686902],[68.5314074,40.5833732],[68.4815488,40.5710088],[68.4687376,40.5886428],[68.4350413,40.5970301],[68.41063,40.6149744],[68.3710533,40.6174058],[68.2978267,40.6565404],[68.2173901,40.6877089],[68.0759617,40.7897307],[68.0233756,40.8008144],[67.9768955,40.8317683],[67.9816348,40.8405302],[67.9715485,40.8512512],[67.9727715,40.8619193],[68.0061202,40.8606968],[68.0125659,40.8905655],[68.0724692,40.9167626],[68.0731381,40.9246573],[68.0886793,40.9256102],[68.0963611,40.9363417],[68.0631195,40.9456178],[68.0821037,40.9529451],[68.0756904,40.9605695],[68.0879438,40.970089],[68.0739917,40.9861296],[68.0822754,41.00131],[68.0554949,41.009158],[68.088369,41.0307134],[68.1269646,41.0323068],[68.1274869,41.0384463],[68.112236,41.0669343],[68.0800587,41.0815598],[68.0639046,41.0719257],[68.0515206,41.0417036],[68.0245381,41.0380931],[68.024134,41.0182401],[67.9832556,41.0249304],[67.9869643,41.0925451],[67.965538,41.148967],[67.8917581,41.1522328],[67.866658,41.1354648],[67.7351198,41.1820391],[67.6852226,41.1708691],[67.5695979,41.167376],[67.365089,41.1269889],[67.3128864,41.1348194],[66.7091523,41.1425258],[66.6066796,41.4937904],[66.5331066,41.8769466],[65.99871,41.937179],[66.001937,42.360736],[66.0706756,42.3379411],[66.095024,42.566158],[66.0966931,42.9381375],[65.8441558,42.8582546],[65.7418195,42.999845],[65.5592582,43.289475],[65.532129,43.3150927],[65.184862,43.4951617],[65.0021563,43.7153968],[64.9322634,43.7353744],[64.5348607,43.5706872],[63.8576283,43.5992579],[63.3490764,43.6504846],[62.2424994,43.5185538],[62.004055,43.505401],[61.4254481,43.9994771],[61.1380816,44.2248499],[61.1075956,44.3604948],[61.0668611,44.3717386],[60.5838487,44.6418207],[58.9902841,45.3694157],[58.5879414,45.5906784],[57.2258654,45.2888582],[55.9989203,45.0001361],[55.9985531,41.3222103]],[[70.5487332,40.9917794],[70.5670953,41.0057956],[70.6121563,40.973772],[70.6716426,40.914894],[70.656662,40.918425],[70.5993032,40.9774034],[70.5731034,40.9921922],[70.5487332,40.9917794]]],[[[70.9984721,40.1817602],[71.0192077,40.1201542],[71.0146137,40.0930606],[71.0049622,40.0818142],[71.0135803,40.0427268],[71.0468313,40.0228366],[71.1099349,40.0219575],[71.1145211,40.005703],[71.1148596,39.99344],[71.1067672,39.9906174],[71.0985772,39.9983664],[71.0899412,39.990353],[71.1003335,39.9814339],[71.0982103,39.9727341],[71.1152728,39.9700008],[71.120067,39.959524],[71.0905703,39.9491977],[71.0790447,39.9209195],[71.0648364,39.9168564],[71.0548013,39.8964714],[71.0920707,39.8997989],[71.0977114,39.8857843],[71.0983429,39.9137822],[71.107842,39.9060123],[71.1043251,39.9156011],[71.1200247,39.922691],[71.1350372,39.908068],[71.1315822,39.9003533],[71.2015342,39.9029547],[71.1941981,39.9082304],[71.1985092,39.913065],[71.2167733,39.913799],[71.2132739,39.9223443],[71.2263547,39.9250649],[71.2073788,39.9391805],[71.205593,39.947229],[71.2145804,39.9521869],[71.1656885,39.9555922],[71.1683125,39.9862071],[71.1448433,40.0006651],[71.1860532,40.0015057],[71.2067122,40.0374366],[71.1184409,40.0185133],[71.1189187,40.0349998],[71.10276,40.056168],[71.1013757,40.0796437],[71.0896241,40.0872705],[71.0902064,40.1114423],[71.0653396,40.1655415],[71.0463956,40.1841896],[71.0425418,40.1749248],[70.9984721,40.1817602]]],[[[71.0237047,40.2401822],[71.0399359,40.226576],[71.0464094,40.2566569],[71.0360848,40.2599542],[71.0237047,40.2401822]]],[[[71.6685686,40.204315],[71.6603969,40.2011349],[71.6721352,40.1979464],[71.6685686,40.204315]]],[[[71.7089283,39.9760557],[71.716834,39.952191],[71.7236266,39.9556997],[71.7280314,39.9437504],[71.745265,39.944167],[71.7451,39.933733],[71.7752549,39.9503363],[71.787183,39.966603],[71.84544,39.946419],[71.858872,39.984213],[71.822715,39.987727],[71.816702,40.001621],[71.7907112,40.0109023],[71.7960141,40.0017802],[71.762962,39.977357],[71.7089283,39.9760557]]]]}}]}